NORAD_CAT_ID,OBJECT_NAME,OBJECT_TYPE,EPOCH,MEAN_MOTION,ECCENTRICITY,INCLINATION,RA_OF_ASC_NODE,ARG_OF_PERICENTER,MEAN_ANOMALY,BSTAR,MEAN_MOTION_DOT,MEAN_MOTION_DDOT,TLE_LINE0,TLE_LINE1,TLE_LINE2,SEMIMAJOR_AXIS,PERIOD,APOGEE,PERIGEE,DECAYED
55664.0,STARLINK-5480,PAYLOAD,2024-04-05 12:21:43,14.98327439,0.0003185,69.9985,137.4984,268.0891,91.9903,6.7849e-07,-8.5e-07,0.0,0 STARLINK-5480,1 55664U 23021AN  24096.51508121 -.00000085  00000-0  67849-6 0  9992,2 55664  69.9985 137.4984 0003185 268.0891  91.9903 14.98327439 63955,6950.201,96.107,574.279,569.852,0.0
55664.0,STARLINK-5480,PAYLOAD,2024-04-05 20:22:23,14.98325481,0.0003243,69.9983,136.656,269.0326,91.0461,-3.1292e-05,-4.66e-06,0.0,0 STARLINK-5480,1 55664U 23021AN  24096.84888336 -.00000466  00000-0 -31292-4 0  9992,2 55664  69.9983 136.6560 0003243 269.0326  91.0461 14.98325481 63701,6950.207,96.107,574.326,569.818,0.0
55664.0,STARLINK-5480,PAYLOAD,2024-04-06 09:11:28,14.98336693,0.0003205,69.9984,135.3098,270.2528,89.8264,-0.00026985,-3.312e-05,0.0,0 STARLINK-5480,1 55664U 23021AN  24097.38296304 -.00003312  00000-0 -26985-3 0  9995,2 55664  69.9984 135.3098 0003205 270.2528  89.8264 14.98336693 64085,6950.172,96.107,574.265,569.81,0.0
55664.0,STARLINK-5480,PAYLOAD,2024-04-06 20:24:24,14.98337661,0.0003177,69.9984,134.1315,271.2658,88.8137,-0.00023071,-2.845e-05,0.0,0 STARLINK-5480,1 55664U 23021AN  24097.85027999 -.00002845  00000-0 -23071-3 0  9992,2 55664  69.9984 134.1315 0003177 271.2658  88.8137 14.98337661 63855,6950.169,96.107,574.242,569.826,0.0
55664.0,STARLINK-5480,PAYLOAD,2024-04-07 09:13:29,14.98310392,0.0002925,69.9986,132.7848,263.1909,96.8918,0.00033699,3.928e-05,0.0,0 STARLINK-5480,1 55664U 23021AN  24098.38436494  .00003928  00000-0  33699-3 0  9993,2 55664  69.9986 132.7848 0002925 263.1909  96.8918 14.98310392 64232,6950.254,96.108,574.151,570.086,0.0
55664.0,STARLINK-5480,PAYLOAD,2024-04-08 04:27:05,14.98325532,0.0003207,69.9983,130.765,269.4038,90.6754,0.00010998,1.219e-05,0.0,0 STARLINK-5480,1 55664U 23021AN  24099.18548381  .00001219  00000-0  10998-3 0  9999,2 55664  69.9983 130.7650 0003207 269.4038  90.6754 14.98325532 64056,6950.207,96.107,574.301,569.843,0.0
55664.0,STARLINK-5480,PAYLOAD,2024-04-08 09:15:29,14.98361019,0.0003133,69.9986,130.26,265.2516,94.8285,-0.00049632,-6.015e-05,0.0,0 STARLINK-5480,1 55664U 23021AN  24099.38575637 -.00006015  00000-0 -49632-3 0  9993,2 55664  69.9986 130.2600 0003133 265.2516  94.8285 14.98361019 64080,6950.097,96.105,574.139,569.785,0.0
55664.0,STARLINK-5480,PAYLOAD,2024-04-08 18:52:18,14.98337713,0.0002964,69.9993,129.2509,269.8324,90.2496,-0.00012275,-1.558e-05,0.0,0 STARLINK-5480,1 55664U 23021AN  24099.78632222 -.00001558  00000-0 -12275-3 0  9991,2 55664  69.9993 129.2509 0002964 269.8324  90.2496 14.98337713 64147,6950.169,96.107,574.094,569.974,0.0
55664.0,STARLINK-5480,PAYLOAD,2024-04-09 09:17:31,14.98318889,0.0002869,69.9992,127.7348,267.522,92.561,-4.6988e-05,-6.53e-06,0.0,0 STARLINK-5480,1 55664U 23021AN  24100.38717305 -.00000653  00000-0 -46988-4 0  9990,2 55664  69.9992 127.7348 0002869 267.5220  92.5610 14.98318889 64230,6950.227,96.108,574.086,570.098,0.0
55664.0,STARLINK-5480,PAYLOAD,2024-04-09 18:54:19,14.98341373,0.0003082,69.9993,126.725,269.8406,90.24,-0.00022929,-2.829e-05,0.0,0 STARLINK-5480,1 55664U 23021AN  24100.78772215 -.00002829  00000-0 -22929-3 0  9990,2 55664  69.9993 126.7250 0003082 269.8406  90.2400 14.98341373 64293,6950.158,96.106,574.165,569.881,0.0
55664.0,STARLINK-5480,PAYLOAD,2024-04-10 12:31:48,14.98327614,0.0002988,69.9987,124.8728,272.4384,87.6433,1.3574e-05,6.9e-07,0.0,0 STARLINK-5480,1 55664U 23021AN  24101.52208662  .00000069  00000-0  13574-4 0  9992,2 55664  69.9987 124.8728 0002988 272.4384  87.6433 14.98327614 64405,6950.2,96.107,574.142,569.989,0.0
55664.0,STARLINK-5480,PAYLOAD,2024-04-10 18:56:20,14.98329602,0.0003019,69.9991,124.1997,270.8293,89.252,2.1638e-05,1.65e-06,0.0,0 STARLINK-5480,1 55664U 23021AN  24101.78912498  .00000165  00000-0  21638-4 0  9996,2 55664  69.9991 124.1997 0003019 270.8293  89.2520 14.98329602 64749,6950.194,96.107,574.157,569.961,0.0
55664.0,STARLINK-5480,PAYLOAD,2024-04-11 10:57:41,14.98321913,0.0003246,69.9981,122.5166,269.0479,91.0308,9.8046e-05,1.077e-05,0.0,0 STARLINK-5480,1 55664U 23021AN  24102.45672844  .00001077  00000-0  98046-4 0  9999,2 55664  69.9981 122.5166 0003246 269.0479  91.0308 14.98321913 64849,6950.218,96.108,574.339,569.827,0.0
55664.0,STARLINK-5480,PAYLOAD,2024-04-11 18:58:21,14.98327347,0.0003243,69.998,121.6749,267.4637,92.6151,5.1228e-05,5.18e-06,0.0,0 STARLINK-5480,1 55664U 23021AN  24102.79052647  .00000518  00000-0  51228-4 0  9999,2 55664  69.9980 121.6749 0003243 267.4637  92.6151 14.98327347 64592,6950.201,96.107,574.32,569.812,0.0
55664.0,STARLINK-5480,PAYLOAD,2024-04-12 10:59:41,14.98331721,0.0003283,69.998,119.9916,270.2773,89.801,3.3078e-05,3.02e-06,0.0,0 STARLINK-5480,1 55664U 23021AN  24103.45812411  .00000302  00000-0  33078-4 0  9990,2 55664  69.9980 119.9916 0003283 270.2773  89.8010 14.98331721 64992,6950.188,96.107,574.334,569.771,0.0
55664.0,STARLINK-5480,PAYLOAD,2024-04-13 04:37:10,14.98330457,0.0003284,69.9979,118.1398,270.0152,90.063,8.9264e-05,9.72e-06,0.0,0 STARLINK-5480,1 55664U 23021AN  24104.19248357  .00000972  00000-0  89264-4 0  9995,2 55664  69.9979 118.1398 0003284 270.0152  90.0630 14.98330457 64802,6950.191,96.107,574.339,569.774,0.0
55664.0,STARLINK-5480,PAYLOAD,2024-04-13 11:01:42,14.98332909,0.0003292,69.9979,117.4666,270.283,89.7952,0.00010205,1.125e-05,0.0,0 STARLINK-5480,1 55664U 23021AN  24104.45952169  .00001125  00000-0  10205-3 0  9996,2 55664  69.9979 117.4666 0003292 270.2830  89.7952 14.98332909 65140,6950.184,96.107,574.337,569.761,0.0
55664.0,STARLINK-5480,PAYLOAD,2024-04-14 04:39:11,14.98332234,0.0003214,69.9981,115.6152,271.425,88.6541,4.4514e-05,4.38e-06,0.0,0 STARLINK-5480,1 55664U 23021AN  24105.19388345  .00000438  00000-0  44514-4 0  9994,2 55664  69.9981 115.6152 0003214 271.4250  88.6541 14.98332234 64957,6950.186,96.107,574.285,569.817,0.0
55664.0,STARLINK-5480,PAYLOAD,2024-04-14 11:03:43,14.98330843,0.0003008,69.9985,114.9424,267.6714,92.4101,5.3361e-05,5.44e-06,0.0,0 STARLINK-5480,1 55664U 23021AN  24105.46092412  .00000544  00000-0  53361-4 0  9999,2 55664  69.9985 114.9424 0003008 267.6714  92.4101 14.98330843 65295,6950.19,96.107,574.146,569.965,0.0
55664.0,STARLINK-5480,PAYLOAD,2024-04-15 04:41:10,14.98346203,0.0002747,69.9988,113.0901,265.0212,95.0633,0.00019935,2.287e-05,0.0,0 STARLINK-5480,1 55664U 23021AN  24106.19526571  .00002287  00000-0  19935-3 0  9992,2 55664  69.9988 113.0901 0002747 265.0212  95.0633 14.98346203 65108,6950.143,96.106,573.917,570.099,0.0
55664.0,STARLINK-5480,PAYLOAD,2024-04-15 11:05:42,14.98346811,0.0002737,69.9993,112.4175,264.7918,95.2929,0.00019046,2.181e-05,0.0,0 STARLINK-5480,1 55664U 23021AN  24106.46230299  .00002181  00000-0  19046-3 0  9997,2 55664  69.9993 112.4175 0002737 264.7918  95.2929 14.98346811 65440,6950.141,96.106,573.908,570.104,0.0
55664.0,STARLINK-5480,PAYLOAD,2024-04-16 04:43:13,14.98324083,0.0002839,69.9988,110.5655,264.8673,95.2162,-3.6158e-05,-5.24e-06,0.0,0 STARLINK-5480,1 55664U 23021AN  24107.19668071 -.00000524  00000-0 -36158-4 0  9996,2 55664  69.9988 110.5655 0002839 264.8673  95.2162 14.98324083 65253,6950.211,96.107,574.049,570.103,0.0
55664.0,STARLINK-5480,PAYLOAD,2024-04-16 11:07:45,14.98326741,0.0002767,69.9985,109.8914,262.0691,98.0155,-2.659e-05,-4.1e-06,0.0,0 STARLINK-5480,1 55664U 23021AN  24107.46371948 -.00000410  00000-0 -26590-4 0  9993,2 55664  69.9985 109.8914 0002767 262.0691  98.0155 14.98326741 65592,6950.203,96.107,573.991,570.145,0.0
55664.0,STARLINK-5480,PAYLOAD,2024-04-17 04:45:13,14.98334129,0.0003151,69.9979,108.0398,269.6238,90.456,-0.00014847,-1.864e-05,0.0,0 STARLINK-5480,1 55664U 23021AN  24108.19807674 -.00001864  00000-0 -14847-3 0  9999,2 55664  69.9979 108.0398 0003151 269.6238  90.4560 14.98334129 65405,6950.18,96.107,574.235,569.855,0.0
55664.0,STARLINK-5480,PAYLOAD,2024-04-17 09:33:37,14.98335633,0.0003062,69.998,107.5342,267.2464,92.8345,-0.00011312,-1.443e-05,0.0,0 STARLINK-5480,1 55664U 23021AN  24108.39835434 -.00001443  00000-0 -11312-3 0  9993,2 55664  69.9980 107.5342 0003062 267.2464  92.8345 14.98335633 65730,6950.175,96.107,574.169,569.912,0.0
55664.0,STARLINK-5480,PAYLOAD,2024-04-18 01:34:59,14.98319066,0.0002849,69.9983,105.8515,264.8448,95.2386,8.9118e-05,9.7e-06,0.0,0 STARLINK-5480,1 55664U 23021AN  24109.06596231  .00000970  00000-0  89118-4 0  9999,2 55664  69.9983 105.8515 0002849 264.8448  95.2386 14.98319066 65535,6950.227,96.108,574.072,570.112,0.0
55664.0,STARLINK-5480,PAYLOAD,2024-04-18 09:35:39,14.98320204,0.0002838,69.9983,105.0098,264.5687,95.5148,9.7473e-05,1.07e-05,0.0,0 STARLINK-5480,1 55664U 23021AN  24109.39976435  .00001070  00000-0  97473-4 0  9998,2 55664  69.9983 105.0098 0002838 264.5687  95.5148 14.98320204 65886,6950.223,96.108,574.061,570.116,0.0
55664.0,STARLINK-5480,PAYLOAD,2024-04-19 04:49:16,14.98328448,0.0002889,69.9983,102.9903,263.5431,96.5399,0.00013706,1.543e-05,0.0,0 STARLINK-5480,1 55664U 23021AN  24110.20088218  .00001543  00000-0  13706-3 0  9994,2 55664  69.9983 102.9903 0002889 263.5431  96.5399 14.98328448 65707,6950.198,96.107,574.071,570.055,0.0
55664.0,STARLINK-5480,PAYLOAD,2024-04-19 09:37:40,14.98330353,0.0002868,69.9984,102.4857,264.8747,95.2084,0.00015738,1.785e-05,0.0,0 STARLINK-5480,1 55664U 23021AN  24110.40116137  .00001785  00000-0  15738-3 0  9993,2 55664  69.9984 102.4857 0002868 264.8747  95.2084 14.98330353 66034,6950.192,96.107,574.05,570.063,0.0
55664.0,STARLINK-5480,PAYLOAD,2024-04-19 22:26:44,14.98334841,0.0002944,69.9983,101.139,265.7848,94.2974,0.00021581,2.483e-05,0.0,0 STARLINK-5480,1 55664U 23021AN  24110.93523740  .00002483  00000-0  21581-3 0  9992,2 55664  69.9983 101.1390 0002944 265.7848  94.2974 14.98334841 66110,6950.178,96.107,574.089,569.997,0.0
